TDRS 3                  
1 19548U 88091B   18114.22106650 -.00000317  00000-0  00000+0 0  9991
2 19548  14.4380   4.8252 0038235 318.5028 266.1845  1.00276067 95520
HST                     
1 20580U 90037B   18114.21672374  .00000479  00000-0  18404-4 0  9992
2 20580  28.4689 111.8761 0002444 280.3422 173.1231 15.09022816337302
TDRS 5                  
1 21639U 91054B   18113.48729744  .00000070  00000-0  00000+0 0  9995
2 21639  14.5434  18.1879 0025367 347.0716 213.8791  1.00271730 97861
TDRS 6                  
1 22314U 93003B   18114.46049733 -.00000310  00000-0  00000+0 0  9992
2 22314  14.1020  21.1689 0006884 339.8943 330.9939  1.00264418 92535
TDRS 7                  
1 23613U 95035B   18113.84168772 -.00000217  00000-0  00000+0 0  9994
2 23613  15.0599  11.8725 0032429   6.8415 220.7828  1.00277630 83303
ISS (ZARYA)             
1 25544U 98067A   18114.72388513  .00002698  00000-0  47928-4 0  9991
2 25544  51.6418 285.2302 0002408  20.2071 107.1760 15.54158710110208
LANDSAT 7               
1 25682U 99020A   18114.19737503  .00000050  00000-0  20972-4 0  9992
2 25682  98.1717 185.4129 0001357  99.2508 260.8839 14.57131316 11883
TERRA                   
1 25994U 99068A   18114.27843471  .00000047  00000-0  20515-4 0  9990
2 25994  98.2058 189.9211 0000788  99.4795 260.6483 14.57096447975973
TDRS 8                  
1 26388U 00034A   18113.31282037 -.00000246  00000-0  00000-0 0  9997
2 26388   8.0018  53.2856 0009363 292.6304  67.2089  1.00268330 65334
TIMED                   
1 26998U 01055B   18114.37689412  .00000131  00000-0  18289-4 0  9997
2 26998  74.0732  55.8538 0001673 298.5810  61.5202 14.88010522887766
TDRS 9                  
1 27389U 02011A   18114.12597015 -.00000119  00000-0  00000+0 0  9999
2 27389   5.8856  75.4155 0021998 262.5976 267.3215  1.00272590 60598
AQUA                    
1 27424U 02022A   18113.96923913  .00000105  00000-0  33229-4 0  9990
2 27424  98.1987  56.0035 0000690 186.6489 251.3130 14.57127921849486
TDRS 10                 
1 27566U 02055A   18114.05361786  .00000059  00000-0  00000+0 0  9992
2 27566   5.5673  57.0475 0009967 260.3070  99.5238  1.00273132 56388
SORCE                   
1 27651U 03004A   18114.16558698  .00000132  00000-0  27936-4 0  9998
2 27651  39.9969  28.4419 0024240 259.2664 100.5395 14.88844538827140
AURA                    
1 28376U 04026A   18113.89118601  .00000105  00000-0  33325-4 0  9992
2 28376  98.1979  58.0893 0001039 110.4483 249.6827 14.57119949732525
SWIFT                   
1 28485U 04047A   18114.36316650  .00000875  00000-0  29866-4 0  9992
2 28485  20.5562 118.7103 0011103 209.0232 150.9584 15.04087324735117
THEMIS A                
1 30580U 07004A   18114.34953990 -.00000356  00000-0  00000+0 0  9998
2 30580   8.9934 156.8669 8302272 197.9839  86.8211  0.87835691 39805
THEMIS D                
1 30797U 07004D   18113.95771493 -.00000674  00000-0  00000+0 0  9993
2 30797   4.9015 120.7441 8466250 245.8125  12.4911  0.75200498 40326
THEMIS E                
1 30798U 07004E   18108.59645754 -.00000419  00000-0  00000+0 0  9995
2 30798   5.7374 146.6648 8386825 217.6473  35.5194  0.81575283 40145
AIM                     
1 31304U 07015A   18114.12193948  .00000561  00000-0  36226-4 0  9991
2 31304  97.9989 312.9670 0005919 144.5413 215.6211 15.12625187601933
FGRST (GLAST)           
1 33053U 08029A   18113.93133657  .00000554  00000-0  15086-4 0  9992
2 33053  25.5833  48.7010 0012039 277.2865  82.6302 15.11076414544356
WISE                    
1 36119U 09071A   18114.55747793  .00000889  00000-0  34251-4 0  9993
2 36119  97.4192 146.9988 0001175 324.1593  35.9568 15.28976248463843
TDRS 11                 
1 39070U 13004A   18113.79898075  .00000066  00000-0  00000-0 0  9996
2 39070   4.9754 328.6501 0007651 331.8622  27.9022  1.00264922 16857
TDRS 12                 
1 39504U 14004A   18113.45901164 -.00000296  00000-0  00000+0 0  9991
2 39504   5.6288 335.9690 0003167  56.2614 303.6061  1.00272804 15603
GPM-CORE                
1 39574U 14009C   18113.89314306  .00003104  00000-0  48477-4 0  9992
2 39574  65.0086 303.2704 0011232 283.3235  76.6659 15.56027302235841
MMS 1                   
1 40482U 15011A   18114.26498951  .00000057  00000-0  00000+0 0  9996
2 40482  12.8938 311.2397 9074287 164.5345  41.6353  0.35510700  8766
MMS 2                   
1 40483U 15011B   18114.62500000  .00000047  00000-0  00000+0 0  9995
2 40483  12.8989 311.2401 9073267 164.5486  87.6429  0.35510389  8758
MMS 3                   
1 40484U 15011C   18114.26483130  .00000057  00000-0  00000+0 0  9991
2 40484  12.8962 311.2180 9073629 164.5632  41.5911  0.35510682  8750
MMS 4                   
1 40485U 15011D   18114.62500000  .00000048  00000-0  00000+0 0  9998
2 40485  12.8907 311.2280 9073745 164.5681  87.6194  0.35510443  8753
JPSS-1                  
1 43013U 17073A   18114.50923028  .00000006  00000-0  23583-4 0  9994
2 43013  98.7221  53.6072 0001401  76.8589 283.2744 14.19556824 22294
